start=new Date('2022-02-08T00:00:00.000Z').valueOf();
sats=[{"MEAN_ANOMALY":"268.0802","COUNTRY_CODE":"US","OBJECT_ID":"2022-005P","BSTAR":"0.00010969000000","TLE_LINE1":"1 51117U 22005P   22038.65015776  .00014782  00000-0  10969-3 0  9996","REV_AT_EPOCH":"440","LAUNCH_DATE":"2022-01-19","CLASSIFICATION_TYPE":"U","CENTER_NAME":"EARTH","SEMIMAJOR_AXIS":"6727.979","RA_OF_ASC_NODE":"177.4535","TIME_SYSTEM":"UTC","REF_FRAME":"TEME","EPHEMERIS_TYPE":"0","PERIAPSIS":"349.156","RCS_SIZE":"MEDIUM","ECCENTRICITY":"0.00010220","GP_ID":"195486439","ELEMENT_SET_NO":"999","NORAD_CAT_ID":"51117","MEAN_MOTION_DOT":"0.00014782","FILE":"3294503","EPOCH":"2022-02-07T15:36:13.630464","OBJECT_TYPE":"PAYLOAD","MEAN_MOTION_DDOT":"0.0000000000000","DECAY_DATE":null,"INCLINATION":"53.2208","ARG_OF_PERICENTER":"92.0336","PERIOD":"91.535","MEAN_MOTION":"15.73170575","MEAN_ELEMENT_THEORY":"SGP4","OBJECT_NAME":"STARLINK-3391","SITE":"AFETR","TLE_LINE2":"2 51117  53.2208 177.4535 0001022  92.0336 268.0802 15.73170575  4402","APOAPSIS":"350.532"},{"MEAN_ANOMALY":"316.0190","COUNTRY_CODE":"US","BSTAR":"0.00040412000000","OBJECT_ID":"2022-005Q","TLE_LINE1":"1 51118U 22005Q   22038.65070132  .00056530  00000-0  40412-3 0  9997","REV_AT_EPOCH":"440","LAUNCH_DATE":"2022-01-19","CENTER_NAME":"EARTH","CLASSIFICATION_TYPE":"U","SEMIMAJOR_AXIS":"6727.834","RA_OF_ASC_NODE":"177.4610","TIME_SYSTEM":"UTC","REF_FRAME":"TEME","EPHEMERIS_TYPE":"0","PERIAPSIS":"348.879","RCS_SIZE":"MEDIUM","ECCENTRICITY":"0.00012180","GP_ID":"195485940","ELEMENT_SET_NO":"999","NORAD_CAT_ID":"51118","MEAN_MOTION_DOT":"0.00056530","EPOCH":"2022-02-07T15:37:00.594048","FILE":"3294503","OBJECT_TYPE":"PAYLOAD","MEAN_MOTION_DDOT":"0.0000000000000","DECAY_DATE":null,"INCLINATION":"53.2220","ARG_OF_PERICENTER":"44.0927","PERIOD":"91.532","MEAN_MOTION":"15.73221570","MEAN_ELEMENT_THEORY":"SGP4","OBJECT_NAME":"STARLINK-3394","SITE":"AFETR","TLE_LINE2":"2 51118  53.2220 177.4610 0001218  44.0927 316.0190 15.73221570  4407","APOAPSIS":"350.518"},{"NORAD_CAT_ID":"51119","MEAN_MOTION_DOT":"0.00979274","EPOCH":"2022-02-07T14:03:59.762304","FILE":"3294331","ECCENTRICITY":"0.00075320","ELEMENT_SET_NO":"999","GP_ID":"195458087","DECAY_DATE":null,"MEAN_MOTION_DDOT":"0.0000000000000","INCLINATION":"53.2211","OBJECT_TYPE":"PAYLOAD","ARG_OF_PERICENTER":"258.3279","PERIOD":"91.437","MEAN_MOTION":"15.74856127","OBJECT_NAME":"STARLINK-3390","TLE_LINE2":"2 51119  53.2211 177.7641 0007532 258.3279 101.6896 15.74856127  4392","SITE":"AFETR","APOAPSIS":"350.107","MEAN_ELEMENT_THEORY":"SGP4","MEAN_ANOMALY":"101.6896","COUNTRY_CODE":"US","OBJECT_ID":"2022-005R","BSTAR":"0.00588380000000","TLE_LINE1":"1 51119U 22005R   22038.58610836  .00979274  00000-0  58838-2 0  9990","REV_AT_EPOCH":"439","LAUNCH_DATE":"2022-01-19","CLASSIFICATION_TYPE":"U","CENTER_NAME":"EARTH","SEMIMAJOR_AXIS":"6723.178","RA_OF_ASC_NODE":"177.7641","EPHEMERIS_TYPE":"0","PERIAPSIS":"339.979","RCS_SIZE":"MEDIUM","TIME_SYSTEM":"UTC","REF_FRAME":"TEME"},{"OBJECT_TYPE":"PAYLOAD","MEAN_MOTION_DDOT":"0.0000000000000","DECAY_DATE":null,"INCLINATION":"53.2197","ELEMENT_SET_NO":"999","GP_ID":"195488138","ECCENTRICITY":"0.00015690","NORAD_CAT_ID":"51120","EPOCH":"2022-02-07T15:35:44.179296","FILE":"3294548","MEAN_MOTION_DOT":"0.00006277","MEAN_ELEMENT_THEORY":"SGP4","OBJECT_NAME":"STARLINK-3398","APOAPSIS":"350.827","TLE_LINE2":"2 51120  53.2197 177.4526 0001569  49.7441 310.3716 15.73196031  4405","SITE":"AFETR","ARG_OF_PERICENTER":"49.7441","MEAN_MOTION":"15.73196031","PERIOD":"91.533","LAUNCH_DATE":"2022-01-19","CENTER_NAME":"EARTH","CLASSIFICATION_TYPE":"U","REV_AT_EPOCH":"440","SEMIMAJOR_AXIS":"6727.906","MEAN_ANOMALY":"310.3716","TLE_LINE1":"1 51120U 22005S   22038.64981689  .00006277  00000-0  49114-4 0  9999","COUNTRY_CODE":"US","BSTAR":"0.00004911400000","OBJECT_ID":"2022-005S","TIME_SYSTEM":"UTC","REF_FRAME":"TEME","PERIAPSIS":"348.716","EPHEMERIS_TYPE":"0","RCS_SIZE":"LARGE","RA_OF_ASC_NODE":"177.4526"},{"ARG_OF_PERICENTER":"106.2283","MEAN_MOTION":"15.73229114","PERIOD":"91.531","MEAN_ELEMENT_THEORY":"SGP4","OBJECT_NAME":"STARLINK-3399","APOAPSIS":"350.948","SITE":"AFETR","TLE_LINE2":"2 51121  53.2218 177.7676 0001889 106.2283 253.8946 15.73229114  4390","GP_ID":"195488135","ELEMENT_SET_NO":"999","ECCENTRICITY":"0.00018890","NORAD_CAT_ID":"51121","EPOCH":"2022-02-07T14:04:53.240448","FILE":"3294548","MEAN_MOTION_DOT":"0.00018831","OBJECT_TYPE":"PAYLOAD","MEAN_MOTION_DDOT":"0.0000000000000","DECAY_DATE":null,"INCLINATION":"53.2218","RA_OF_ASC_NODE":"177.7676","TIME_SYSTEM":"UTC","REF_FRAME":"TEME","PERIAPSIS":"348.406","EPHEMERIS_TYPE":"0","RCS_SIZE":"LARGE","MEAN_ANOMALY":"253.8946","TLE_LINE1":"1 51121U 22005T   22038.58672732  .00018831  00000-0  13812-3 0  9993","COUNTRY_CODE":"US","BSTAR":"0.00013812000000","OBJECT_ID":"2022-005T","LAUNCH_DATE":"2022-01-19","CLASSIFICATION_TYPE":"U","CENTER_NAME":"EARTH","REV_AT_EPOCH":"439","SEMIMAJOR_AXIS":"6727.812"},{"OBJECT_TYPE":"PAYLOAD","INCLINATION":"53.2220","DECAY_DATE":null,"MEAN_MOTION_DDOT":"0.0000000000000","GP_ID":"195483949","ELEMENT_SET_NO":"999","ECCENTRICITY":"0.00016050","EPOCH":"2022-02-07T09:29:58.328736","FILE":"3294379","MEAN_MOTION_DOT":"0.00011243","NORAD_CAT_ID":"51122","MEAN_ELEMENT_THEORY":"SGP4","APOAPSIS":"350.884","TLE_LINE2":"2 51122  53.2220 178.7101 0001605  89.2454 270.8750 15.73184644  3258","SITE":"AFETR","OBJECT_NAME":"STARLINK-3373","MEAN_MOTION":"15.73184644","PERIOD":"91.534","ARG_OF_PERICENTER":"89.2454","SEMIMAJOR_AXIS":"6727.939","CLASSIFICATION_TYPE":"U","LAUNCH_DATE":"2022-01-19","CENTER_NAME":"EARTH","REV_AT_EPOCH":"325","TLE_LINE1":"1 51122U 22005U   22038.39581399  .00011243  00000-0  84474-4 0  9994","COUNTRY_CODE":"US","OBJECT_ID":"2022-005U","BSTAR":"0.00008447400000","MEAN_ANOMALY":"270.8750","REF_FRAME":"TEME","TIME_SYSTEM":"UTC","RCS_SIZE":"MEDIUM","PERIAPSIS":"348.724","EPHEMERIS_TYPE":"0","RA_OF_ASC_NODE":"178.7101"},{"SEMIMAJOR_AXIS":"6727.908","CLASSIFICATION_TYPE":"U","LAUNCH_DATE":"2022-01-19","CENTER_NAME":"EARTH","REV_AT_EPOCH":"436","TLE_LINE1":"1 51123U 22005V   22038.58617679 -.00000121  00000-0  35580-5 0  9996","COUNTRY_CODE":"US","BSTAR":"0.00000355800000","OBJECT_ID":"2022-005V","MEAN_ANOMALY":"316.7130","RCS_SIZE":"MEDIUM","PERIAPSIS":"348.719","EPHEMERIS_TYPE":"0","REF_FRAME":"TEME","TIME_SYSTEM":"UTC","RA_OF_ASC_NODE":"177.7656","INCLINATION":"53.2215","MEAN_MOTION_DDOT":"0.0000000000000","DECAY_DATE":null,"OBJECT_TYPE":"PAYLOAD","FILE":"3294548","EPOCH":"2022-02-07T14:04:05.674656","MEAN_MOTION_DOT":"-0.00000121","NORAD_CAT_ID":"51123","ELEMENT_SET_NO":"999","GP_ID":"195488148","ECCENTRICITY":"0.00015670","APOAPSIS":"350.827","SITE":"AFETR","TLE_LINE2":"2 51123  53.2215 177.7656 0001567  43.4013 316.7130 15.73195495  4368","OBJECT_NAME":"STARLINK-3392","MEAN_ELEMENT_THEORY":"SGP4","MEAN_MOTION":"15.73195495","PERIOD":"91.533","ARG_OF_PERICENTER":"43.4013"},{"NORAD_CAT_ID":"51124","MEAN_MOTION_DOT":"0.00015137","FILE":"3294379","EPOCH":"2022-02-07T09:29:29.460768","ECCENTRICITY":"0.00018250","GP_ID":"195483717","ELEMENT_SET_NO":"999","MEAN_MOTION_DDOT":"0.0000000000000","DECAY_DATE":null,"INCLINATION":"53.2217","OBJECT_TYPE":"PAYLOAD","ARG_OF_PERICENTER":"82.5396","PERIOD":"91.533","MEAN_MOTION":"15.73195156","OBJECT_NAME":"STARLINK-3389","TLE_LINE2":"2 51124  53.2217 178.7080 0001825  82.5396 277.5832 15.73195156  3252","SITE":"AFETR","APOAPSIS":"351.002","MEAN_ELEMENT_THEORY":"SGP4","MEAN_ANOMALY":"277.5832","OBJECT_ID":"2022-005W","COUNTRY_CODE":"US","BSTAR":"0.00011210000000","TLE_LINE1":"1 51124U 22005W   22038.39547987  .00015137  00000-0  11210-3 0  9994","REV_AT_EPOCH":"325","LAUNCH_DATE":"2022-01-19","CLASSIFICATION_TYPE":"U","CENTER_NAME":"EARTH","SEMIMAJOR_AXIS":"6727.909","RA_OF_ASC_NODE":"178.7080","EPHEMERIS_TYPE":"0","PERIAPSIS":"348.546","RCS_SIZE":"LARGE","TIME_SYSTEM":"UTC","REF_FRAME":"TEME"},{"SEMIMAJOR_AXIS":"6728.050","REV_AT_EPOCH":"439","CENTER_NAME":"EARTH","LAUNCH_DATE":"2022-01-19","CLASSIFICATION_TYPE":"U","BSTAR":"0.00002919600000","COUNTRY_CODE":"US","OBJECT_ID":"2022-005X","TLE_LINE1":"1 51125U 22005X   22038.58573722  .00003470  00000-0  29196-4 0  9992","MEAN_ANOMALY":"288.1229","RCS_SIZE":"LARGE","EPHEMERIS_TYPE":"0","PERIAPSIS":"348.887","REF_FRAME":"TEME","TIME_SYSTEM":"UTC","RA_OF_ASC_NODE":"177.7631","INCLINATION":"53.2212","MEAN_MOTION_DDOT":"0.0000000000000","DECAY_DATE":null,"OBJECT_TYPE":"PAYLOAD","MEAN_MOTION_DOT":"0.00003470","EPOCH":"2022-02-07T14:03:27.695808","FILE":"3294265","NORAD_CAT_ID":"51125","ECCENTRICITY":"0.00015280","ELEMENT_SET_NO":"999","GP_ID":"195456452","TLE_LINE2":"2 51125  53.2212 177.7631 0001528  71.9958 288.1229 15.73145729  4390","SITE":"AFETR","APOAPSIS":"350.943","OBJECT_NAME":"STARLINK-3387","MEAN_ELEMENT_THEORY":"SGP4","PERIOD":"91.536","MEAN_MOTION":"15.73145729","ARG_OF_PERICENTER":"71.9958"},{"ARG_OF_PERICENTER":"69.9283","MEAN_MOTION":"15.73393450","PERIOD":"91.522","MEAN_ELEMENT_THEORY":"SGP4","OBJECT_NAME":"STARLINK-3386","APOAPSIS":"349.581","SITE":"AFETR","TLE_LINE2":"2 51126  53.2205 177.4470 0000553  69.9283 290.1797 15.73393450  4407","ELEMENT_SET_NO":"999","GP_ID":"195488090","ECCENTRICITY":"0.00005530","NORAD_CAT_ID":"51126","EPOCH":"2022-02-07T15:35:03.784704","FILE":"3294555","MEAN_MOTION_DOT":"0.00027448","OBJECT_TYPE":"PAYLOAD","MEAN_MOTION_DDOT":"0.0000000000000","DECAY_DATE":null,"INCLINATION":"53.2205","RA_OF_ASC_NODE":"177.4470","TIME_SYSTEM":"UTC","REF_FRAME":"TEME","PERIAPSIS":"348.837","EPHEMERIS_TYPE":"0","RCS_SIZE":"LARGE","MEAN_ANOMALY":"290.1797","TLE_LINE1":"1 51126U 22005Y   22038.64934936  .00027448  00000-0  19771-3 0  9996","COUNTRY_CODE":"US","BSTAR":"0.00019771000000","OBJECT_ID":"2022-005Y","LAUNCH_DATE":"2022-01-19","CLASSIFICATION_TYPE":"U","CENTER_NAME":"EARTH","REV_AT_EPOCH":"440","SEMIMAJOR_AXIS":"6727.344"}];
